{
  "type": "FeatureCollection",
  "features": [
    {
      "type": "Feature",
      "properties": {
        "norad_id": 34556,
        "name": "COSMOS 2251 DEB",
        "group": "cosmos-2251-debris",
        "lat": 31.931817534160775,
        "lon": -84.11377257526729,
        "alt_km": 628.8137350982743,
        "timestamp": "2025-12-22T05:49:03.895810+00:00",
        "meta_object_name": "COSMOS 2251 DEB",
        "meta_object_id": "1993-036US",
        "meta_epoch": "2025-12-21T16:27:52.255008",
        "meta_mean_motion": 14.78050661,
        "meta_eccentricity": 0.0006726,
        "meta_inclination": 74.0162,
        "meta_ra_of_asc_node": 107.2698,
        "meta_arg_of_pericenter": 167.0947,
        "meta_mean_anomaly": 260.1645,
        "meta_ephemeris_type": 0,
        "meta_classification_type": "U",
        "meta_norad_cat_id": 34556,
        "meta_element_set_no": 999,
        "meta_rev_at_epoch": 88461,
        "meta_bstar": 0.0018073,
        "meta_mean_motion_dot": 0.00013055,
        "meta_mean_motion_ddot": 0,
        "tle_line1": "1 34556U 93036US  25355.68602147  .00013055  00000+0  18073-2 0  9992",
        "tle_line2": "2 34556  74.0162 107.2698 0006726 167.0947 260.1645 14.78050661884612"
      },
      "geometry": {
        "type": "Point",
        "coordinates": [
          -84.11377257526729,
          31.931817534160775
        ]
      }
    },
    {
      "type": "Feature",
      "properties": {
        "norad_id": 34560,
        "name": "COSMOS 2251 DEB",
        "group": "cosmos-2251-debris",
        "lat": -24.597392496298372,
        "lon": -48.839236617174905,
        "alt_km": 648.9519303550323,
        "timestamp": "2025-12-22T05:49:03.895821+00:00",
        "meta_object_name": "COSMOS 2251 DEB",
        "meta_object_id": "1993-036UW",
        "meta_epoch": "2025-12-21T19:39:42.022368",
        "meta_mean_motion": 14.72348108,
        "meta_eccentricity": 0.0013975,
        "meta_inclination": 74.0172,
        "meta_ra_of_asc_node": 124.4456,
        "meta_arg_of_pericenter": 206.7479,
        "meta_mean_anomaly": 276.7329,
        "meta_ephemeris_type": 0,
        "meta_classification_type": "U",
        "meta_norad_cat_id": 34560,
        "meta_element_set_no": 999,
        "meta_rev_at_epoch": 88385,
        "meta_bstar": 0.0017282,
        "meta_mean_motion_dot": 0.00010939,
        "meta_mean_motion_ddot": 0,
        "tle_line1": "1 34560U 93036UW  25355.81923637  .00010939  00000+0  17282-2 0  9991",
        "tle_line2": "2 34560  74.0172 124.4456 0013975 206.7479 276.7329 14.72348108883853"
      },
      "geometry": {
        "type": "Point",
        "coordinates": [
          -48.839236617174905,
          -24.597392496298372
        ]
      }
    },
    {
      "type": "Feature",
      "properties": {
        "norad_id": 34563,
        "name": "COSMOS 2251 DEB",
        "group": "cosmos-2251-debris",
        "lat": 8.630897147190023,
        "lon": 3.476796582427042,
        "alt_km": 741.5428679221468,
        "timestamp": "2025-12-22T05:49:03.895831+00:00",
        "meta_object_name": "COSMOS 2251 DEB",
        "meta_object_id": "1993-036UZ",
        "meta_epoch": "2025-12-21T19:08:23.204256",
        "meta_mean_motion": 14.46535511,
        "meta_eccentricity": 0.0013929,
        "meta_inclination": 74.0366,
        "meta_ra_of_asc_node": 186.7974,
        "meta_arg_of_pericenter": 280.3194,
        "meta_mean_anomaly": 94.7698,
        "meta_ephemeris_type": 0,
        "meta_classification_type": "U",
        "meta_norad_cat_id": 34563,
        "meta_element_set_no": 999,
        "meta_rev_at_epoch": 88328,
        "meta_bstar": 0.00033011,
        "meta_mean_motion_dot": 1.164e-05,
        "meta_mean_motion_ddot": 0,
        "tle_line1": "1 34563U 93036UZ  25355.79749079  .00001164  00000+0  33011-3 0  9996",
        "tle_line2": "2 34563  74.0366 186.7974 0013929 280.3194  94.7698 14.46535511883289"
      },
      "geometry": {
        "type": "Point",
        "coordinates": [
          3.476796582427042,
          8.630897147190023
        ]
      }
    },
    {
      "type": "Feature",
      "properties": {
        "norad_id": 34564,
        "name": "COSMOS 2251 DEB",
        "group": "cosmos-2251-debris",
        "lat": 63.86165751124195,
        "lon": 4.734672192444435,
        "alt_km": 761.2780754796349,
        "timestamp": "2025-12-22T05:49:03.895841+00:00",
        "meta_object_name": "COSMOS 2251 DEB",
        "meta_object_id": "1993-036VA",
        "meta_epoch": "2025-12-21T01:40:16.342176",
        "meta_mean_motion": 14.40703135,
        "meta_eccentricity": 0.00193185,
        "meta_inclination": 74.0316,
        "meta_ra_of_asc_node": 222.6004,
        "meta_arg_of_pericenter": 325.3273,
        "meta_mean_anomaly": 185.3128,
        "meta_ephemeris_type": 0,
        "meta_classification_type": "U",
        "meta_norad_cat_id": 34564,
        "meta_element_set_no": 999,
        "meta_rev_at_epoch": 88126,
        "meta_bstar": 0.00017237979,
        "meta_mean_motion_dot": 5.25e-06,
        "meta_mean_motion_ddot": 0,
        "tle_line1": "1 34564U 93036VA  25355.06963359  .00000525  00000+0  17238-3 0  9999",
        "tle_line2": "2 34564  74.0316 222.6004 0019318 325.3273 185.3128 14.40703135881269"
      },
      "geometry": {
        "type": "Point",
        "coordinates": [
          4.734672192444435,
          63.86165751124195
        ]
      }
    },
    {
      "type": "Feature",
      "properties": {
        "norad_id": 34567,
        "name": "COSMOS 2251 DEB",
        "group": "cosmos-2251-debris",
        "lat": -49.6111656755343,
        "lon": 120.02160393061266,
        "alt_km": 823.2704856855753,
        "timestamp": "2025-12-22T05:49:03.895851+00:00",
        "meta_object_name": "COSMOS 2251 DEB",
        "meta_object_id": "1993-036VD",
        "meta_epoch": "2025-12-21T20:30:39.523104",
        "meta_mean_motion": 14.2402609,
        "meta_eccentricity": 0.0074192,
        "meta_inclination": 74.0408,
        "meta_ra_of_asc_node": 140.375,
        "meta_arg_of_pericenter": 212.6922,
        "meta_mean_anomaly": 266.9702,
        "meta_ephemeris_type": 0,
        "meta_classification_type": "U",
        "meta_norad_cat_id": 34567,
        "meta_element_set_no": 999,
        "meta_rev_at_epoch": 87254,
        "meta_bstar": 0.0001947,
        "meta_mean_motion_dot": 4.34e-06,
        "meta_mean_motion_ddot": 0,
        "tle_line1": "1 34567U 93036VD  25355.85462411  .00000434  00000+0  19470-3 0  9991",
        "tle_line2": "2 34567  74.0408 140.3750 0074192 212.6922 266.9702 14.24026090872543"
      },
      "geometry": {
        "type": "Point",
        "coordinates": [
          120.02160393061266,
          -49.6111656755343
        ]
      }
    },
    {
      "type": "Feature",
      "properties": {
        "norad_id": 34569,
        "name": "COSMOS 2251 DEB",
        "group": "cosmos-2251-debris",
        "lat": 38.18871628633185,
        "lon": -12.099862206612357,
        "alt_km": 881.9814669578864,
        "timestamp": "2025-12-22T05:49:03.895861+00:00",
        "meta_object_name": "COSMOS 2251 DEB",
        "meta_object_id": "1993-036VF",
        "meta_epoch": "2025-12-21T19:09:12.140352",
        "meta_mean_motion": 14.24773702,
        "meta_eccentricity": 0.0157717,
        "meta_inclination": 73.9894,
        "meta_ra_of_asc_node": 181.7567,
        "meta_arg_of_pericenter": 8.0761,
        "meta_mean_anomaly": 12.2251,
        "meta_ephemeris_type": 0,
        "meta_classification_type": "U",
        "meta_norad_cat_id": 34569,
        "meta_element_set_no": 999,
        "meta_rev_at_epoch": 87097,
        "meta_bstar": 0.00035193,
        "meta_mean_motion_dot": 9.07e-06,
        "meta_mean_motion_ddot": 0,
        "tle_line1": "1 34569U 93036VF  25355.79805718  .00000907  00000+0  35193-3 0  9992",
        "tle_line2": "2 34569  73.9894 181.7567 0157717   8.0761  12.2251 14.24773702870975"
      },
      "geometry": {
        "type": "Point",
        "coordinates": [
          -12.099862206612357,
          38.18871628633185
        ]
      }
    },
    {
      "type": "Feature",
      "properties": {
        "norad_id": 34570,
        "name": "COSMOS 2251 DEB",
        "group": "cosmos-2251-debris",
        "lat": -60.09211039691833,
        "lon": 171.7414501049521,
        "alt_km": 1015.7628096886374,
        "timestamp": "2025-12-22T05:49:03.895871+00:00",
        "meta_object_name": "COSMOS 2251 DEB",
        "meta_object_id": "1993-036VG",
        "meta_epoch": "2025-12-21T06:41:00.076704",
        "meta_mean_motion": 13.99833504,
        "meta_eccentricity": 0.0190292,
        "meta_inclination": 73.9568,
        "meta_ra_of_asc_node": 203.4332,
        "meta_arg_of_pericenter": 84.0165,
        "meta_mean_anomaly": 37.063,
        "meta_ephemeris_type": 0,
        "meta_classification_type": "U",
        "meta_norad_cat_id": 34570,
        "meta_element_set_no": 999,
        "meta_rev_at_epoch": 85720,
        "meta_bstar": 0.00041501,
        "meta_mean_motion_dot": 6.89e-06,
        "meta_mean_motion_ddot": 0,
        "tle_line1": "1 34570U 93036VG  25355.27847311  .00000689  00000+0  41501-3 0  9999",
        "tle_line2": "2 34570  73.9568 203.4332 0190292  84.0165  37.0630 13.99833504857209"
      },
      "geometry": {
        "type": "Point",
        "coordinates": [
          171.7414501049521,
          -60.09211039691833
        ]
      }
    }
  ]
}